{"type": "FeatureCollection", "features": [ {"type": "Feature", "properties": {"norad_id": 60453, "name": "LEGION 4", "group": "resource", "lat": 25.92251794498199, "lon": -161.40601505430215, "alt_km": 521.0171972696662, "timestamp": "2025-12-11T15:53:39.200131+00:00", "meta": {"OBJECT_NAME": "LEGION 4", "OBJECT_ID": "2024-146B", "EPOCH": "2025-12-11T05:46:52.253184", "MEAN_MOTION": 15.15799695, "ECCENTRICITY": 0.00096046, "INCLINATION": 45.0386, "RA_OF_ASC_NODE": 49.9138, "ARG_OF_PERICENTER": 303.3201, "MEAN_ANOMALY": 56.6758, "EPHEMERIS_TYPE": 0, "CLASSIFICATION_TYPE": "U", "NORAD_CAT_ID": 60453, "ELEMENT_SET_NO": 999, "REV_AT_EPOCH": 7235, "BSTAR": 0.00045966743, "MEAN_MOTION_DOT": 8.683e-05, "MEAN_MOTION_DDOT": 0}, "tle": {"line1": "1 60453U 24146B   25345.24088256  .00008683  00000+0  45967-3 0  9997", "line2": "2 60453  45.0386  49.9138 0009604 303.3201  56.6758 15.15799695 72352"}}, "geometry": {"type": "Point", "coordinates": [-161.40601505430215, 25.92251794498199]}}, {"type": "Feature", "properties": {"norad_id": 60989, "name": "SENTINEL-2C", "group": "resource", "lat": -36.304472393649476, "lon": -128.19932492158893, "alt_km": 795.7250509213463, "timestamp": "2025-12-11T15:53:39.200141+00:00", "meta": {"OBJECT_NAME": "SENTINEL-2C", "OBJECT_ID": "2024-157A", "EPOCH": "2025-12-11T04:48:53.227584", "MEAN_MOTION": 14.3081658, "ECCENTRICITY": 0.0001195, "INCLINATION": 98.5683, "RA_OF_ASC_NODE": 57.7053, "ARG_OF_PERICENTER": 97.5952, "MEAN_ANOMALY": 262.5367, "EPHEMERIS_TYPE": 0, "CLASSIFICATION_TYPE": "U", "NORAD_CAT_ID": 60989, "ELEMENT_SET_NO": 999, "REV_AT_EPOCH": 6610, "BSTAR": 0.00010288668, "MEAN_MOTION_DOT": 2.26e-06, "MEAN_MOTION_DDOT": 0}, "tle": {"line1": "1 60989U 24157A   25345.20061606  .00000226  00000+0  10289-3 0  9993", "line2": "2 60989  98.5683  57.7053 0001195  97.5952 262.5367 14.30816580 66103"}}, "geometry": {"type": "Point", "coordinates": [-128.19932492158893, -36.304472393649476]}}, {"type": "Feature", "properties": {"norad_id": 61735, "name": "IONOSFERA-M 1", "group": "resource", "lat": 25.154423898852805, "lon": 39.66176828088195, "alt_km": 815.8670535423271, "timestamp": "2025-12-11T15:53:39.200151+00:00", "meta": {"OBJECT_NAME": "IONOSFERA-M 1", "OBJECT_ID": "2024-199A", "EPOCH": "2025-12-11T06:43:53.236992", "MEAN_MOTION": 14.22713508, "ECCENTRICITY": 0.00010315, "INCLINATION": 98.7411, "RA_OF_ASC_NODE": 215.1399, "ARG_OF_PERICENTER": 24.0182, "MEAN_ANOMALY": 336.1044, "EPHEMERIS_TYPE": 0, "CLASSIFICATION_TYPE": "U", "NORAD_CAT_ID": 61735, "ELEMENT_SET_NO": 999, "REV_AT_EPOCH": 10098, "BSTAR": 6.726595e-05, "MEAN_MOTION_DOT": 1.06e-06, "MEAN_MOTION_DDOT": 0}, "tle": {"line1": "1 61735U 24199A   25345.28047728  .00000106  00000+0  67266-4 0  9991", "line2": "2 61735  98.7411 215.1399 0001031  24.0182 336.1044 14.22713508100988"}}, "geometry": {"type": "Point", "coordinates": [39.66176828088195, 25.154423898852805]}}, {"type": "Feature", "properties": {"norad_id": 61736, "name": "IONOSFERA-M 2", "group": "resource", "lat": -22.76456606558832, "lon": -140.86755353613833, "alt_km": 822.3422000293067, "timestamp": "2025-12-11T15:53:39.200162+00:00", "meta": {"OBJECT_NAME": "IONOSFERA-M 2", "OBJECT_ID": "2024-199B", "EPOCH": "2025-12-11T05:52:30.458208", "MEAN_MOTION": 14.22716614, "ECCENTRICITY": 0.00016061, "INCLINATION": 98.7403, "RA_OF_ASC_NODE": 215.017, "ARG_OF_PERICENTER": 112.6306, "MEAN_ANOMALY": 247.5042, "EPHEMERIS_TYPE": 0, "CLASSIFICATION_TYPE": "U", "NORAD_CAT_ID": 61736, "ELEMENT_SET_NO": 999, "REV_AT_EPOCH": 10410, "BSTAR": 0.00012917876, "MEAN_MOTION_DOT": 2.45e-06, "MEAN_MOTION_DDOT": 0}, "tle": {"line1": "1 61736U 24199B   25345.24479697  .00000245  00000+0  12918-3 0  9999", "line2": "2 61736  98.7403 215.0170 0001606 112.6306 247.5042 14.22716614104108"}}, "geometry": {"type": "Point", "coordinates": [-140.86755353613833, -22.76456606558832]}}, {"type": "Feature", "properties": {"norad_id": 63772, "name": "BIOMASS", "group": "resource", "lat": -4.300002126049382, "lon": 171.29863344616925, "alt_km": 672.3129492647886, "timestamp": "2025-12-11T15:53:39.200172+00:00", "meta": {"OBJECT_NAME": "BIOMASS", "OBJECT_ID": "2025-090A", "EPOCH": "2025-12-11T02:49:22.865664", "MEAN_MOTION": 14.67541407, "ECCENTRICITY": 0.00011802, "INCLINATION": 98.07, "RA_OF_ASC_NODE": 170.1509, "ARG_OF_PERICENTER": 77.1221, "MEAN_ANOMALY": 283.0116, "EPHEMERIS_TYPE": 0, "CLASSIFICATION_TYPE": "U", "NORAD_CAT_ID": 63772, "ELEMENT_SET_NO": 999, "REV_AT_EPOCH": 3310, "BSTAR": 0.00038790487, "MEAN_MOTION_DOT": 2.152e-05, "MEAN_MOTION_DDOT": 0}, "tle": {"line1": "1 63772U 25090A   25345.11762576  .00002152  00000+0  38790-3 0  9994", "line2": "2 63772  98.0700 170.1509 0001180  77.1221 283.0116 14.67541407 33101"}}, "geometry": {"type": "Point", "coordinates": [171.29863344616925, -4.300002126049382]}}, {"type": "Feature", "properties": {"norad_id": 64694, "name": "GOSAT-GW (IBUKI GW)", "group": "resource", "lat": -25.10622006409471, "lon": 97.39600424882252, "alt_km": 675.0196373831977, "timestamp": "2025-12-11T15:53:39.200183+00:00", "meta": {"OBJECT_NAME": "GOSAT-GW (IBUKI GW)", "OBJECT_ID": "2025-141A", "EPOCH": "2025-12-11T06:46:48.940896", "MEAN_MOTION": 14.67573061, "ECCENTRICITY": 0.00014875, "INCLINATION": 98.0423, "RA_OF_ASC_NODE": 280.8218, "ARG_OF_PERICENTER": 82.4768, "MEAN_ANOMALY": 277.6606, "EPHEMERIS_TYPE": 0, "CLASSIFICATION_TYPE": "U", "NORAD_CAT_ID": 64694, "ELEMENT_SET_NO": 999, "REV_AT_EPOCH": 2428, "BSTAR": 0.00045870221, "MEAN_MOTION_DOT": 2.556e-05, "MEAN_MOTION_DDOT": 0}, "tle": {"line1": "1 64694U 25141A   25345.28251089  .00002556  00000+0  45870-3 0  9990", "line2": "2 64694  98.0423 280.8218 0001487  82.4768 277.6606 14.67573061 24281"}}, "geometry": {"type": "Point", "coordinates": [97.39600424882252, -25.10622006409471]}}, {"type": "Feature", "properties": {"norad_id": 64876, "name": "IONOSFERA-M 3", "group": "resource", "lat": 25.856845843305447, "lon": -56.636220356340466, "alt_km": 818.2308863771232, "timestamp": "2025-12-11T15:53:39.200193+00:00", "meta": {"OBJECT_NAME": "IONOSFERA-M 3", "OBJECT_ID": "2025-155A", "EPOCH": "2025-12-11T07:19:28.569792", "MEAN_MOTION": 14.2144136, "ECCENTRICITY": 0.00022536, "INCLINATION": 98.578, "RA_OF_ASC_NODE": 307.2119, "ARG_OF_PERICENTER": 62.3737, "MEAN_ANOMALY": 297.7669, "EPHEMERIS_TYPE": 0, "CLASSIFICATION_TYPE": "U", "NORAD_CAT_ID": 64876, "ELEMENT_SET_NO": 999, "REV_AT_EPOCH": 1971, "BSTAR": 0.0001485079, "MEAN_MOTION_DOT": 2.82e-06, "MEAN_MOTION_DDOT": 0}, "tle": {"line1": "1 64876U 25155A   25345.30519178  .00000282  00000+0  14851-3 0  9995", "line2": "2 64876  98.5780 307.2119 0002253  62.3737 297.7669 14.21441360 19713"}}, "geometry": {"type": "Point", "coordinates": [-56.636220356340466, 25.856845843305447]}}, {"type": "Feature", "properties": {"norad_id": 64877, "name": "IONOSFERA-M 4", "group": "resource", "lat": -26.733113198752168, "lon": 123.1183781970735, "alt_km": 827.0774279810539, "timestamp": "2025-12-11T15:53:39.200203+00:00", "meta": {"OBJECT_NAME": "IONOSFERA-M 4", "OBJECT_ID": "2025-155B", "EPOCH": "2025-12-11T06:28:36.588288", "MEAN_MOTION": 14.21442499, "ECCENTRICITY": 0.00016172, "INCLINATION": 98.578, "RA_OF_ASC_NODE": 307.0972, "ARG_OF_PERICENTER": 64.9788, "MEAN_ANOMALY": 295.1557, "EPHEMERIS_TYPE": 0, "CLASSIFICATION_TYPE": "U", "NORAD_CAT_ID": 64877, "ELEMENT_SET_NO": 999, "REV_AT_EPOCH": 1970, "BSTAR": 0.00015564426, "MEAN_MOTION_DOT": 2.98e-06, "MEAN_MOTION_DDOT": 0}, "tle": {"line1": "1 64877U 25155B   25345.26986792  .00000298  00000+0  15564-3 0  9990", "line2": "2 64877  98.5780 307.0972 0001617  64.9788 295.1557 14.21442499 19707"}}, "geometry": {"type": "Point", "coordinates": [123.1183781970735, -26.733113198752168]}}, {"type": "Feature", "properties": {"norad_id": 64899, "name": "MICROCARB", "group": "resource", "lat": 14.191967062732385, "lon": -116.9361695668457, "alt_km": 644.0725298906691, "timestamp": "2025-12-11T15:53:39.200213+00:00", "meta": {"OBJECT_NAME": "MICROCARB", "OBJECT_ID": "2025-156A", "EPOCH": "2025-12-11T05:21:25.661952", "MEAN_MOTION": 14.72052934, "ECCENTRICITY": 0.00170444, "INCLINATION": 98.0027, "RA_OF_ASC_NODE": 60.593, "ARG_OF_PERICENTER": 149.3859, "MEAN_ANOMALY": 210.8346, "EPHEMERIS_TYPE": 0, "CLASSIFICATION_TYPE": "U", "NORAD_CAT_ID": 64899, "ELEMENT_SET_NO": 999, "REV_AT_EPOCH": 2031, "BSTAR": 0.00018479872, "MEAN_MOTION_DOT": 1.114e-05, "MEAN_MOTION_DDOT": 0}, "tle": {"line1": "1 64899U 25156A   25345.22321368  .00001114  00000+0  18480-3 0  9991", "line2": "2 64899  98.0027  60.5930 0017044 149.3859 210.8346 14.72052934 20319"}}, "geometry": {"type": "Point", "coordinates": [-116.9361695668457, 14.191967062732385]}}, {"type": "Feature", "properties": {"norad_id": 64900, "name": "CO3D 3", "group": "resource", "lat": 20.371532855883615, "lon": 59.26563661782594, "alt_km": 504.98424759698446, "timestamp": "2025-12-11T15:53:39.200223+00:00", "meta": {"OBJECT_NAME": "CO3D 3", "OBJECT_ID": "2025-156B", "EPOCH": "2025-12-11T06:19:33.214368", "MEAN_MOTION": 15.20237572, "ECCENTRICITY": 0.00013821, "INCLINATION": 97.4338, "RA_OF_ASC_NODE": 61.6517, "ARG_OF_PERICENTER": 101.0239, "MEAN_ANOMALY": 259.1152, "EPHEMERIS_TYPE": 0, "CLASSIFICATION_TYPE": "U", "NORAD_CAT_ID": 64900, "ELEMENT_SET_NO": 999, "REV_AT_EPOCH": 2098, "BSTAR": 0.0010757644, "MEAN_MOTION_DOT": 0.00023318, "MEAN_MOTION_DDOT": 0}, "tle": {"line1": "1 64900U 25156B   25345.26357887  .00023318  00000+0  10758-2 0  9992", "line2": "2 64900  97.4338  61.6517 0001382 101.0239 259.1152 15.20237572 20989"}}, "geometry": {"type": "Point", "coordinates": [59.26563661782594, 20.371532855883615]}}]}